"H","diameter","albedo","diameter_sigma","e","a","q","i","om","w","ma","ad","n","tp","tp_cal","per","per_y","moid","moid_ld","sigma_e","sigma_a","sigma_q","sigma_i","sigma_om","sigma_w","sigma_ma","sigma_ad","sigma_n","sigma_tp","sigma_per","rms","class"
14.8758928571429,6.47405357142857,0.0984642857142857,0.672508928571429,0.0422985566787762,3.13478118431054,3.00209915518455,11.5766949173358,289.55140037867,300.812772209063,334.190684174324,3.26746321343653,0.177618398262767,2459145.75740145,20201033.1145443,2027.34754224714,5.55057506433166,2.01495321428571,784.159342403571,7.17755089285714e-08,5.21446875e-08,2.33505089285714e-07,8.78854196428571e-06,3.64934732142857e-05,0.000126919285714286,0.000120857964285714,5.49212410714286e-08,4.41515803571428e-09,0.000680907589285714,5.06230714285714e-05,0.566619464285714,"N"
14.6175,5.49555,0.144675,0.311675,0.0637726274057608,2.82369080544911,2.64231602078032,4.03232129157077,282.571543136165,23.4265274291114,318.032321514348,3.0050655901179,0.207839958223727,2459202.40794435,20201218.9079444,1733.30239641914,4.74552333037409,1.6323415,635.258341555,4.72446e-08,2.058645e-08,1.377246e-07,5.00799e-06,0.0001080542,0.000132176375,6.4685275e-05,2.1881e-08,2.2816975e-09,0.00030787775,1.8940525e-05,0.55251925,"N"
15.375,4.07059785353535,0.212024621212121,0.417785984848485,0.212510856824744,2.4576186122194,1.93370598511204,8.8283401615254,63.5537925354629,326.627268907983,280.557281047425,2.98153123932676,0.255972955470354,2459311.03180188,20210383.5318019,1407.41657116873,3.85329656719708,0.95018657260101,369.784108459135,6.88914002525253e-08,1.83161029040404e-08,1.64041676136364e-07,6.19110675505051e-06,4.58627582070707e-05,5.02163775252525e-05,2.33737443181818e-05,2.23477184343434e-08,2.85362998737374e-09,9.39530435606061e-05,1.5742458270202e-05,0.547696938131313,"N"
15.9375,2.55052083333333,0.21540625,0.363895833333333,0.175553417048238,2.28874120179779,1.88580734613862,4.55985554967531,312.440479119552,68.8536354980938,38.0678340242494,2.69167505745697,0.284784471173867,2458866.79646496,20200118.2964649,1264.83699700299,3.46293496783843,0.892095510416667,347.176809788854,4.4385e-08,9.93835416666667e-09,1.0356784375e-07,5.26004166666667e-06,9.98440416666667e-05,0.0001035571875,1.79292270833333e-05,1.17074791666667e-08,1.85047302083333e-09,6.25046041666667e-05,8.24228958333333e-06,0.52890625,"N"
12.74,52.0626,0.0932,0.9544,0.185103890631254,2.78024704651683,2.26601081604007,10.3689887315954,151.952218083548,40.2000260391218,221.540640374038,3.29448327699358,0.212618737926741,2459651.69327565,20220313.1932756,1693.27701180799,4.6359397996112,1.279016,497.75465672,4.83292e-08,1.74494e-08,1.320672e-07,5.01824e-06,2.819694e-05,3.2321e-05,1.801048e-05,2.04364e-08,1.9907e-09,8.8258e-05,1.59583e-05,0.541832,"N"
14.7191666666667,6.31175,0.0866166666666667,0.547858333333333,0.0814769034059022,3.03509697736507,2.78757639628429,9.43634351339645,311.074904256014,319.102336678496,190.142713171322,3.28261755844585,0.186460701954463,2459911.38374506,20221151.2170784,1931.46027655777,5.28805003848807,1.78309383333333,693.926627118333,6.31215833333333e-08,3.51366833333333e-08,1.95099666666667e-07,7.1948225e-06,5.34342416666667e-05,8.39091833333333e-05,6.1595625e-05,3.80554166666667e-08,3.203155e-09,0.000329418333333333,3.36135416666667e-05,0.554278083333333,"N"
15.4344444444444,3.6565,0.156422222222222,0.350344444444444,0.115818061030185,2.68263145790413,2.37234308040231,9.20659137102513,212.150514415838,71.7697593584732,112.242492307237,2.99291983540595,0.22438384499641,2458500.32892462,20190116.8289246,1604.96594464059,4.39415727485447,1.375177,535.17763309,4.60448333333333e-08,1.89636833333333e-08,1.20979483333333e-07,5.80388833333333e-06,5.76131777777778e-05,6.89713444444445e-05,2.86301555555556e-05,2.12088833333333e-08,2.37957777777778e-09,0.000127300261111111,1.70177111111111e-05,0.545573166666667,"N"
14.8187301587302,6.79987777777778,0.0827071428571429,0.329869047619048,0.0726064351460587,3.17819441292792,2.94678505857126,13.7012253162952,59.8940385382516,121.085287202088,277.775674433533,3.40960376728458,0.174005298521362,2459473.00865321,20210915.5086532,2069.63996267191,5.66636540088133,1.97045857936508,766.843365331508,8.62831412698413e-08,5.00546849206349e-08,2.75906682539683e-07,8.3779723015873e-06,5.64312222222222e-05,0.000125826146825397,9.38182777777776e-05,5.37431515873016e-08,4.13510484126984e-09,0.000539216857142856,4.88348373015873e-05,0.574021793650794,"N"
14.61875,4.95925,0.163145833333333,0.637583333333333,0.0463686724667232,2.92603776364984,2.79036772236374,7.5055554917881,106.406701176075,294.602916222532,248.644671647949,3.06170780493594,0.196950320618848,2459565.92976813,20211217.4297681,1828.23827253908,5.00544359353614,1.80061916666667,700.746961091667,4.98243333333333e-08,2.43890833333333e-08,1.45871145833333e-07,7.2225625e-06,5.56961875e-05,0.000173691645833333,0.000151558479166667,2.55246041666667e-08,2.45674583333333e-09,0.000772652083333333,2.28683125e-05,0.566371458333333,"N"
14.7168398268398,6.82177359307359,0.0806168831168831,0.707965367965368,0.0880116335965204,3.20182361033868,2.91968278988685,12.5187261404467,296.627005056982,120.119133296969,12.713366025781,3.4839644307905,0.172079921655174,2458926.56696767,20200318.0669677,2092.75686911352,5.72965604137857,1.94778842424242,758.020821062424,6.24134428571428e-08,3.94579636363636e-08,2.09614883116883e-07,7.08114181818182e-06,3.85612783549784e-05,7.45615437229437e-05,5.63163861471861e-05,4.28590454545455e-08,3.19110770562771e-09,0.00032472945021645,3.86608909090909e-05,0.543372887445888,"N"
15.4600462962963,3.18813796296296,0.175419444444444,0.311821296296296,0.10125783824861,2.68596354544666,2.41365586330881,11.7697949382382,62.7852589045639,143.0234342792,99.8895798851847,2.95827122758451,0.223998692952448,2458554.54351953,20190312.0435195,1608.00363081004,4.40247400632455,1.42599818518519,554.955713728519,5.89449601851852e-08,2.43380282407407e-08,1.58384199074074e-07,6.57921782407407e-06,4.10872166666667e-05,5.9048035185185e-05,3.65933425925926e-05,2.67849023148148e-08,3.04465949074074e-09,0.000162281787037037,2.18551092592593e-05,0.552721657407407,"N"
15.2222222222222,3.40557222222222,0.203005555555556,0.446394444444444,0.138959322769759,2.58963848595975,2.2288418788319,10.1881405681199,308.73327129188,34.536414651096,124.941805856257,2.9504350930876,0.236649332184957,2458472.43065032,20181219.9306503,1522.33136862279,4.16791613585978,1.23134777777778,479.203614677778,7.24275722222222e-08,1.88038083333333e-08,1.89905972222222e-07,6.34299277777778e-06,7.26705777777778e-05,8.36804333333333e-05,2.835315e-05,2.1510725e-08,2.57094222222222e-09,0.000116758372222222,1.65887044444444e-05,0.533632555555556,"N"
14.4654201190966,7.15572201083231,0.115089509754951,0.618119869101487,0.0886397977764351,3.01242179269967,2.74553466966097,10.3314261761299,274.068376564457,91.5153853180822,94.5715848681399,3.27930891573838,0.188612214080001,2458499.08092367,20190115.5809237,1909.94112123741,5.22913380215582,1.76100144476847,685.328932260544,5.42980790312629e-08,2.81201702158136e-08,1.65599068749878e-07,6.31577361094788e-06,4.52302212836183e-05,7.47721915523202e-05,4.8991044398004e-05,3.05488796730231e-08,2.63539463502184e-09,0.000260114590666686,2.67548354317251e-05,0.528022523114141,"N"
15.9596296296296,3.8381037037037,0.0881148148148148,0.322648148148148,0.27255186587706,2.89434131999686,2.10489870667231,11.0795572932643,169.465203877874,137.546340884275,345.249668045724,3.68378393332141,0.200274791570698,2459074.15694036,20200802.9458292,1798.75738777337,4.924729329975,1.11381681481481,433.464089821481,1.17750877777778e-07,4.01243037037037e-08,3.45470259259259e-07,1.00896807407407e-05,5.96285962962963e-05,6.86339962962963e-05,2.55890555555556e-05,5.13073259259259e-08,4.10678444444444e-09,0.000129499840740741,3.75097259259259e-05,0.546101518518519,"N"
14.7833333333333,6.91564444444444,0.0724444444444444,0.471177777777778,0.069961280018699,3.16060295860105,2.93875151098547,15.065711177044,53.3768427193805,313.086247426583,87.8340448859865,3.38245440621663,0.175482503783645,2458500.06273083,20190116.5627308,2052.53282630604,5.61952861411646,1.96220711111111,763.632141431111,7.02650333333333e-08,4.14304888888889e-08,2.29816111111111e-07,8.05085333333333e-06,3.89519e-05,0.000120543455555556,0.000106942977777778,4.40284222222222e-08,3.43156888888889e-09,0.000607108111111111,4.04019666666667e-05,0.551571111111111,"N"
15.8375,2.6625,0.20990625,0.3163125,0.186910858077273,2.38531282305664,1.93849776020169,6.39138762562456,256.451760852109,82.5305577016066,225.287105639209,2.83212788591159,0.267677034240988,2459503.79451838,20211016.2945184,1345.73980665359,3.68443478892152,0.94494546875,367.744428073437,4.952184375e-08,2.0116703125e-08,1.138831875e-07,5.777578125e-06,9.093146875e-05,9.6668125e-05,2.79648125e-05,2.41774e-08,3.344778125e-09,0.0001097505,1.7065540625e-05,0.5476540625,"N"
15.6374269005848,3.85461299081036,0.168955304928989,0.341021512113617,0.223280412465734,2.68441610078583,2.08518416664631,11.7441856316431,145.087101355657,128.574021098439,119.058958773252,3.28364803492534,0.224210018432367,2458469.4593555,20181216.9593555,1606.63928096994,4.3987386200409,1.10176935630744,428.775580394165,5.18812642021721e-08,2.37660440685046e-08,1.33860911027569e-07,6.86619985380117e-06,3.61133327067669e-05,4.43394429824561e-05,2.21190398496241e-05,2.93555731620718e-08,3.02159356307435e-09,9.3657335839599e-05,2.12735808479532e-05,0.557873930659983,"N"
